{"type": "FeatureCollection", "features": [ {"type": "Feature", "properties": {"norad_id": 35605, "name": "COSMOS 2251 DEB", "group": "cosmos-2251-debris", "lat": 72.14931778875145, "lon": 62.95273474171562, "alt_km": 448.0325432049067, "timestamp": "2025-12-26T09:30:54.036355+00:00", "meta": {"OBJECT_NAME": "COSMOS 2251 DEB", "OBJECT_ID": "1993-036AMY", "EPOCH": "2025-12-22T14:36:44.008416", "MEAN_MOTION": 15.38179315, "ECCENTRICITY": 0.00228045, "INCLINATION": 73.869, "RA_OF_ASC_NODE": 315.1978, "ARG_OF_PERICENTER": 235.9327, "MEAN_ANOMALY": 123.9715, "EPHEMERIS_TYPE": 0, "CLASSIFICATION_TYPE": "U", "NORAD_CAT_ID": 35605, "ELEMENT_SET_NO": 999, "REV_AT_EPOCH": 66123, "BSTAR": 0.0066900453, "MEAN_MOTION_DOT": 0.00262511, "MEAN_MOTION_DDOT": 0}, "tle": {"line1": "1 35605U 93036AMY 25356.60884269  .00262511  00000+0  66900-2 0  9993", "line2": "2 35605  73.8690 315.1978 0022804 235.9327 123.9715 15.38179315661234"}}, "geometry": {"type": "Point", "coordinates": [62.95273474171562, 72.14931778875145]}}, {"type": "Feature", "properties": {"norad_id": 35606, "name": "COSMOS 2251 DEB", "group": "cosmos-2251-debris", "lat": -58.67781127741725, "lon": -162.45437075131903, "alt_km": 883.1432994565575, "timestamp": "2025-12-26T09:30:54.036365+00:00", "meta": {"OBJECT_NAME": "COSMOS 2251 DEB", "OBJECT_ID": "1993-036AMZ", "EPOCH": "2025-12-23T17:40:03.776448", "MEAN_MOTION": 13.41219482, "ECCENTRICITY": 0.0456715, "INCLINATION": 73.8099, "RA_OF_ASC_NODE": 353.2688, "ARG_OF_PERICENTER": 197.3533, "MEAN_ANOMALY": 161.1513, "EPHEMERIS_TYPE": 0, "CLASSIFICATION_TYPE": "U", "NORAD_CAT_ID": 35606, "ELEMENT_SET_NO": 999, "REV_AT_EPOCH": 61187, "BSTAR": 0.00021068754, "MEAN_MOTION_DOT": 1.94e-06, "MEAN_MOTION_DDOT": 0}, "tle": {"line1": "1 35606U 93036AMZ 25357.73615482  .00000194  00000+0  21069-3 0  9993", "line2": "2 35606  73.8099 353.2688 0456715 197.3533 161.1513 13.41219482611878"}}, "geometry": {"type": "Point", "coordinates": [-162.45437075131903, -58.67781127741725]}}, {"type": "Feature", "properties": {"norad_id": 35611, "name": "COSMOS 2251 DEB", "group": "cosmos-2251-debris", "lat": -2.8386084113348296, "lon": 151.8611448915262, "alt_km": 664.315934465355, "timestamp": "2025-12-26T09:30:54.036376+00:00", "meta": {"OBJECT_NAME": "COSMOS 2251 DEB", "OBJECT_ID": "1993-036ANE", "EPOCH": "2025-12-19T11:16:40.848672", "MEAN_MOTION": 14.73020971, "ECCENTRICITY": 0.0021353, "INCLINATION": 74.0189, "RA_OF_ASC_NODE": 166.1787, "ARG_OF_PERICENTER": 238.9125, "MEAN_ANOMALY": 120.9952, "EPHEMERIS_TYPE": 0, "CLASSIFICATION_TYPE": "U", "NORAD_CAT_ID": 35611, "ELEMENT_SET_NO": 999, "REV_AT_EPOCH": 87389, "BSTAR": 0.0015718, "MEAN_MOTION_DOT": 0.0001012, "MEAN_MOTION_DDOT": 0}, "tle": {"line1": "1 35611U 93036ANE 25353.46991723  .00010120  00000+0  15718-2 0  9993", "line2": "2 35611  74.0189 166.1787 0021353 238.9125 120.9952 14.73020971873894"}}, "geometry": {"type": "Point", "coordinates": [151.8611448915262, -2.8386084113348296]}}, {"type": "Feature", "properties": {"norad_id": 35614, "name": "COSMOS 2251 DEB", "group": "cosmos-2251-debris", "lat": -5.049574094768618, "lon": 122.43942350386472, "alt_km": 629.0632281685548, "timestamp": "2025-12-26T09:30:54.036386+00:00", "meta": {"OBJECT_NAME": "COSMOS 2251 DEB", "OBJECT_ID": "1993-036ANH", "EPOCH": "2025-12-22T04:50:52.701504", "MEAN_MOTION": 14.67087782, "ECCENTRICITY": 0.00751415, "INCLINATION": 73.9595, "RA_OF_ASC_NODE": 309.1128, "ARG_OF_PERICENTER": 161.1452, "MEAN_ANOMALY": 199.2529, "EPHEMERIS_TYPE": 0, "CLASSIFICATION_TYPE": "U", "NORAD_CAT_ID": 35614, "ELEMENT_SET_NO": 999, "REV_AT_EPOCH": 87868, "BSTAR": 0.00075496675, "MEAN_MOTION_DOT": 4.392e-05, "MEAN_MOTION_DDOT": 0}, "tle": {"line1": "1 35614U 93036ANH 25356.20199886  .00004392  00000+0  75497-3 0  9996", "line2": "2 35614  73.9595 309.1128 0075141 161.1452 199.2529 14.67087782878685"}}, "geometry": {"type": "Point", "coordinates": [122.43942350386472, -5.049574094768618]}}, {"type": "Feature", "properties": {"norad_id": 35645, "name": "COSMOS 2251 DEB", "group": "cosmos-2251-debris", "lat": -61.15998422880128, "lon": 30.663160490285865, "alt_km": 734.0298388024939, "timestamp": "2025-12-26T09:30:54.036395+00:00", "meta": {"OBJECT_NAME": "COSMOS 2251 DEB", "OBJECT_ID": "1993-036ANL", "EPOCH": "2025-12-25T10:34:11.479296", "MEAN_MOTION": 14.45753423, "ECCENTRICITY": 0.0069637, "INCLINATION": 73.9639, "RA_OF_ASC_NODE": 63.9405, "ARG_OF_PERICENTER": 220.3088, "MEAN_ANOMALY": 139.2896, "EPHEMERIS_TYPE": 0, "CLASSIFICATION_TYPE": "U", "NORAD_CAT_ID": 35645, "ELEMENT_SET_NO": 999, "REV_AT_EPOCH": 86955, "BSTAR": 0.0018908, "MEAN_MOTION_DOT": 6.883e-05, "MEAN_MOTION_DDOT": 0}, "tle": {"line1": "1 35645U 93036ANL 25359.44041064  .00006883  00000+0  18908-2 0  9993", "line2": "2 35645  73.9639  63.9405 0069637 220.3088 139.2896 14.45753423869552"}}, "geometry": {"type": "Point", "coordinates": [30.663160490285865, -61.15998422880128]}}, {"type": "Feature", "properties": {"norad_id": 35646, "name": "COSMOS 2251 DEB", "group": "cosmos-2251-debris", "lat": 69.03863557352709, "lon": 165.30849171427653, "alt_km": 826.9210193073559, "timestamp": "2025-12-26T09:30:54.036405+00:00", "meta": {"OBJECT_NAME": "COSMOS 2251 DEB", "OBJECT_ID": "1993-036ANM", "EPOCH": "2025-12-24T19:59:26.255328", "MEAN_MOTION": 13.40835272, "ECCENTRICITY": 0.04558466, "INCLINATION": 73.8714, "RA_OF_ASC_NODE": 36.8399, "ARG_OF_PERICENTER": 144.9794, "MEAN_ANOMALY": 337.3781, "EPHEMERIS_TYPE": 0, "CLASSIFICATION_TYPE": "U", "NORAD_CAT_ID": 35646, "ELEMENT_SET_NO": 999, "REV_AT_EPOCH": 82020, "BSTAR": 0.00039650264, "MEAN_MOTION_DOT": 3.84e-06, "MEAN_MOTION_DDOT": 0}, "tle": {"line1": "1 35646U 93036ANM 25358.83294277  .00000384  00000+0  39650-3 0  9990", "line2": "2 35646  73.8714  36.8399 0455846 144.9794 337.3781 13.40835272820203"}}, "geometry": {"type": "Point", "coordinates": [165.30849171427653, 69.03863557352709]}}, {"type": "Feature", "properties": {"norad_id": 35647, "name": "COSMOS 2251 DEB", "group": "cosmos-2251-debris", "lat": -73.39764698052623, "lon": 163.08208662258062, "alt_km": 758.6103472770901, "timestamp": "2025-12-26T09:30:54.036416+00:00", "meta": {"OBJECT_NAME": "COSMOS 2251 DEB", "OBJECT_ID": "1993-036ANN", "EPOCH": "2025-12-24T03:04:08.125248", "MEAN_MOTION": 14.43689782, "ECCENTRICITY": 0.00461776, "INCLINATION": 74.0232, "RA_OF_ASC_NODE": 273.3799, "ARG_OF_PERICENTER": 9.8571, "MEAN_ANOMALY": 350.348, "EPHEMERIS_TYPE": 0, "CLASSIFICATION_TYPE": "U", "NORAD_CAT_ID": 35647, "ELEMENT_SET_NO": 999, "REV_AT_EPOCH": 67828, "BSTAR": 0.0007860854, "MEAN_MOTION_DOT": 2.678e-05, "MEAN_MOTION_DDOT": 0}, "tle": {"line1": "1 35647U 93036ANN 25358.12787182  .00002678  00000+0  78609-3 0  9990", "line2": "2 35647  74.0232 273.3799 0046177   9.8571 350.3480 14.43689782678286"}}, "geometry": {"type": "Point", "coordinates": [163.08208662258062, -73.39764698052623]}}, {"type": "Feature", "properties": {"norad_id": 35650, "name": "COSMOS 2251 DEB", "group": "cosmos-2251-debris", "lat": -63.611799668594806, "lon": -152.96133927836968, "alt_km": 632.3112961024472, "timestamp": "2025-12-26T09:30:54.036426+00:00", "meta": {"OBJECT_NAME": "COSMOS 2251 DEB", "OBJECT_ID": "1993-036ANR", "EPOCH": "2025-12-24T10:09:10.296576", "MEAN_MOTION": 14.83923288, "ECCENTRICITY": 0.00151483, "INCLINATION": 74.0477, "RA_OF_ASC_NODE": 355.7395, "ARG_OF_PERICENTER": 38.3431, "MEAN_ANOMALY": 112.3443, "EPHEMERIS_TYPE": 0, "CLASSIFICATION_TYPE": "U", "NORAD_CAT_ID": 35650, "ELEMENT_SET_NO": 999, "REV_AT_EPOCH": 87807, "BSTAR": 0.0020058306, "MEAN_MOTION_DOT": 0.00016711, "MEAN_MOTION_DDOT": 0}, "tle": {"line1": "1 35650U 93036ANR 25358.42303584  .00016711  00000+0  20058-2 0  9994", "line2": "2 35650  74.0477 355.7395 0015148  38.3431 112.3443 14.83923288878074"}}, "geometry": {"type": "Point", "coordinates": [-152.96133927836968, -63.611799668594806]}}, {"type": "Feature", "properties": {"norad_id": 35660, "name": "COSMOS 2251 DEB", "group": "cosmos-2251-debris", "lat": -34.94580576558685, "lon": 96.06508737554793, "alt_km": 726.8959928641616, "timestamp": "2025-12-26T09:30:54.036436+00:00", "meta": {"OBJECT_NAME": "COSMOS 2251 DEB", "OBJECT_ID": "1993-036APB", "EPOCH": "2025-12-23T17:25:27.080832", "MEAN_MOTION": 14.49964406, "ECCENTRICITY": 0.00185636, "INCLINATION": 74.0421, "RA_OF_ASC_NODE": 112.6097, "ARG_OF_PERICENTER": 260.1497, "MEAN_ANOMALY": 169.4034, "EPHEMERIS_TYPE": 0, "CLASSIFICATION_TYPE": "U", "NORAD_CAT_ID": 35660, "ELEMENT_SET_NO": 999, "REV_AT_EPOCH": 66030, "BSTAR": 0.0004829615, "MEAN_MOTION_DOT": 1.846e-05, "MEAN_MOTION_DDOT": 0}, "tle": {"line1": "1 35660U 93036APB 25357.72600788  .00001846  00000+0  48296-3 0  9991", "line2": "2 35660  74.0421 112.6097 0018563 260.1497 169.4034 14.49964406660307"}}, "geometry": {"type": "Point", "coordinates": [96.06508737554793, -34.94580576558685]}}, {"type": "Feature", "properties": {"norad_id": 35661, "name": "COSMOS 2251 DEB", "group": "cosmos-2251-debris", "lat": -34.50456190206073, "lon": 41.14095547082555, "alt_km": 673.8366651321212, "timestamp": "2025-12-26T09:30:54.036446+00:00", "meta": {"OBJECT_NAME": "COSMOS 2251 DEB", "OBJECT_ID": "1993-036APC", "EPOCH": "2025-12-23T10:37:17.617728", "MEAN_MOTION": 14.86718624, "ECCENTRICITY": 0.00868669, "INCLINATION": 74.0127, "RA_OF_ASC_NODE": 58.3939, "ARG_OF_PERICENTER": 159.8507, "MEAN_ANOMALY": 200.6139, "EPHEMERIS_TYPE": 0, "CLASSIFICATION_TYPE": "U", "NORAD_CAT_ID": 35661, "ELEMENT_SET_NO": 999, "REV_AT_EPOCH": 88027, "BSTAR": 0.00075396446, "MEAN_MOTION_DOT": 7.154e-05, "MEAN_MOTION_DDOT": 0}, "tle": {"line1": "1 35661U 93036APC 25357.44256502  .00007154  00000+0  75396-3 0  9991", "line2": "2 35661  74.0127  58.3939 0086866 159.8507 200.6139 14.86718624880273"}}, "geometry": {"type": "Point", "coordinates": [41.14095547082555, -34.50456190206073]}}]}